CCSDS_OMM_VERS = 2.0
CREATION_DATE  = 
ORIGINATOR     = 

OBJECT_NAME    = COSMOS 2058
OBJECT_ID      = 1990-010A
CENTER_NAME    = EARTH
REF_FRAME      = TEME
TIME_SYSTEM    = UTC
MEAN_ELEMENT_THEORY = SGP/SGP4

EPOCH          = 2026-03-07T11:07:02.942400
MEAN_MOTION    = 15.11298259
ECCENTRICITY   = .00095647
INCLINATION    = 82.4671
RA_OF_ASC_NODE = 49.6214
ARG_OF_PERICENTER = 351.1659
MEAN_ANOMALY   = 8.9401

EPHEMERIS_TYPE = 0
CLASSIFICATION_TYPE = U
NORAD_CAT_ID   = 20465
ELEMENT_SET_NO = 999
REV_AT_EPOCH   = 94190
BSTAR          = .36676833E-3
MEAN_MOTION_DOT = .6208E-4
MEAN_MOTION_DDOT = 0

CCSDS_OMM_VERS = 2.0
CREATION_DATE  = 
ORIGINATOR     = 

OBJECT_NAME    = SL-14 R/B
OBJECT_ID      = 1990-010B
CENTER_NAME    = EARTH
REF_FRAME      = TEME
TIME_SYSTEM    = UTC
MEAN_ELEMENT_THEORY = SGP/SGP4

EPOCH          = 2026-03-07T14:18:18.980064
MEAN_MOTION    = 14.83566901
ECCENTRICITY   = .00186665
INCLINATION    = 82.4988
RA_OF_ASC_NODE = 269.3560
ARG_OF_PERICENTER = 309.7077
MEAN_ANOMALY   = 50.2491

EPHEMERIS_TYPE = 0
CLASSIFICATION_TYPE = U
NORAD_CAT_ID   = 20466
ELEMENT_SET_NO = 999
REV_AT_EPOCH   = 92817
BSTAR          = .64553787E-4
MEAN_MOTION_DOT = .556E-5
MEAN_MOTION_DDOT = 0

CCSDS_OMM_VERS = 2.0
CREATION_DATE  = 
ORIGINATOR     = 

OBJECT_NAME    = SL-14 R/B
OBJECT_ID      = 1990-018B
CENTER_NAME    = EARTH
REF_FRAME      = TEME
TIME_SYSTEM    = UTC
MEAN_ELEMENT_THEORY = SGP/SGP4

EPOCH          = 2026-03-07T14:41:06.852768
MEAN_MOTION    = 14.82142477
ECCENTRICITY   = .00176468
INCLINATION    = 82.5199
RA_OF_ASC_NODE = 225.0318
ARG_OF_PERICENTER = 98.3320
MEAN_ANOMALY   = 261.9896

EPHEMERIS_TYPE = 0
CLASSIFICATION_TYPE = U
NORAD_CAT_ID   = 20511
ELEMENT_SET_NO = 999
REV_AT_EPOCH   = 92227
BSTAR          = .91204685E-4
MEAN_MOTION_DOT = .751E-5
MEAN_MOTION_DDOT = 0

CCSDS_OMM_VERS = 2.0
CREATION_DATE  = 
ORIGINATOR     = 

OBJECT_NAME    = HST
OBJECT_ID      = 1990-037B
CENTER_NAME    = EARTH
REF_FRAME      = TEME
TIME_SYSTEM    = UTC
MEAN_ELEMENT_THEORY = SGP/SGP4

EPOCH          = 2026-03-07T01:43:17.774400
MEAN_MOTION    = 15.29432289
ECCENTRICITY   = .00018113
INCLINATION    = 28.4710
RA_OF_ASC_NODE = 57.8566
ARG_OF_PERICENTER = 100.2256
MEAN_ANOMALY   = 259.8544

EPHEMERIS_TYPE = 0
CLASSIFICATION_TYPE = U
NORAD_CAT_ID   = 20580
ELEMENT_SET_NO = 999
REV_AT_EPOCH   = 77291
BSTAR          = .29166201E-3
MEAN_MOTION_DOT = .88E-4
MEAN_MOTION_DDOT = 0

CCSDS_OMM_VERS = 2.0
CREATION_DATE  = 
ORIGINATOR     = 

OBJECT_NAME    = SL-16 R/B
OBJECT_ID      = 1990-046B
CENTER_NAME    = EARTH
REF_FRAME      = TEME
TIME_SYSTEM    = UTC
MEAN_ELEMENT_THEORY = SGP/SGP4

EPOCH          = 2026-03-07T15:31:51.813408
MEAN_MOTION    = 14.15013177
ECCENTRICITY   = .00162121
INCLINATION    = 70.9991
RA_OF_ASC_NODE = 302.2047
ARG_OF_PERICENTER = 302.3506
MEAN_ANOMALY   = 57.6046

EPHEMERIS_TYPE = 0
CLASSIFICATION_TYPE = U
NORAD_CAT_ID   = 20625
ELEMENT_SET_NO = 999
REV_AT_EPOCH   = 84810
BSTAR          = -.10134689E-3
MEAN_MOTION_DOT = -.244E-5
MEAN_MOTION_DDOT = 0

CCSDS_OMM_VERS = 2.0
CREATION_DATE  = 
ORIGINATOR     = 

OBJECT_NAME    = COSMOS 2084
OBJECT_ID      = 1990-055A
CENTER_NAME    = EARTH
REF_FRAME      = TEME
TIME_SYSTEM    = UTC
MEAN_ELEMENT_THEORY = SGP/SGP4

EPOCH          = 2026-03-07T04:45:24.465312
MEAN_MOTION    = 15.05633843
ECCENTRICITY   = .0017441
INCLINATION    = 62.7924
RA_OF_ASC_NODE = 344.0754
ARG_OF_PERICENTER = 189.3301
MEAN_ANOMALY   = 170.7478

EPHEMERIS_TYPE = 0
CLASSIFICATION_TYPE = U
NORAD_CAT_ID   = 20663
ELEMENT_SET_NO = 999
REV_AT_EPOCH   = 93594
BSTAR          = .27495E-3
MEAN_MOTION_DOT = .3799E-4
MEAN_MOTION_DDOT = 0

CCSDS_OMM_VERS = 2.0
CREATION_DATE  = 
ORIGINATOR     = 

OBJECT_NAME    = SL-6 R/B(2)
OBJECT_ID      = 1990-055D
CENTER_NAME    = EARTH
REF_FRAME      = TEME
TIME_SYSTEM    = UTC
MEAN_ELEMENT_THEORY = SGP/SGP4

EPOCH          = 2026-03-07T15:25:52.925088
MEAN_MOTION    = 15.03583164
ECCENTRICITY   = .00243583
INCLINATION    = 62.7823
RA_OF_ASC_NODE = 260.8111
ARG_OF_PERICENTER = 346.5140
MEAN_ANOMALY   = 13.5305

EPHEMERIS_TYPE = 0
CLASSIFICATION_TYPE = U
NORAD_CAT_ID   = 20666
ELEMENT_SET_NO = 999
REV_AT_EPOCH   = 93788
BSTAR          = .21929245E-3
MEAN_MOTION_DOT = .2829E-4
MEAN_MOTION_DDOT = 0

CCSDS_OMM_VERS = 2.0
CREATION_DATE  = 
ORIGINATOR     = 

OBJECT_NAME    = SL-8 R/B
OBJECT_ID      = 1990-078B
CENTER_NAME    = EARTH
REF_FRAME      = TEME
TIME_SYSTEM    = UTC
MEAN_ELEMENT_THEORY = SGP/SGP4

EPOCH          = 2026-03-07T13:25:57.572832
MEAN_MOTION    = 14.88972174
ECCENTRICITY   = .03627556
INCLINATION    = 82.9000
RA_OF_ASC_NODE = 253.2268
ARG_OF_PERICENTER = 21.1646
MEAN_ANOMALY   = 340.4147

EPHEMERIS_TYPE = 0
CLASSIFICATION_TYPE = U
NORAD_CAT_ID   = 20775
ELEMENT_SET_NO = 999
REV_AT_EPOCH   = 80898
BSTAR          = .56860299E-3
MEAN_MOTION_DOT = .19315E-3
MEAN_MOTION_DDOT = 0

CCSDS_OMM_VERS = 2.0
CREATION_DATE  = 
ORIGINATOR     = 

OBJECT_NAME    = SL-8 R/B
OBJECT_ID      = 1991-006B
CENTER_NAME    = EARTH
REF_FRAME      = TEME
TIME_SYSTEM    = UTC
MEAN_ELEMENT_THEORY = SGP/SGP4

EPOCH          = 2026-03-07T08:57:06.206400
MEAN_MOTION    = 13.77493933
ECCENTRICITY   = .0023221
INCLINATION    = 82.9466
RA_OF_ASC_NODE = 171.7681
ARG_OF_PERICENTER = 44.6389
MEAN_ANOMALY   = 18.4175

EPHEMERIS_TYPE = 0
CLASSIFICATION_TYPE = U
NORAD_CAT_ID   = 21088
ELEMENT_SET_NO = 999
REV_AT_EPOCH   = 76375
BSTAR          = .73934019E-4
MEAN_MOTION_DOT = .89E-6
MEAN_MOTION_DDOT = 0

CCSDS_OMM_VERS = 2.0
CREATION_DATE  = 
ORIGINATOR     = 

OBJECT_NAME    = OKEAN-3
OBJECT_ID      = 1991-039A
CENTER_NAME    = EARTH
REF_FRAME      = TEME
TIME_SYSTEM    = UTC
MEAN_ELEMENT_THEORY = SGP/SGP4

EPOCH          = 2026-03-07T14:49:24.369024
MEAN_MOTION    = 15.04785321
ECCENTRICITY   = .00140694
INCLINATION    = 82.5189
RA_OF_ASC_NODE = 338.8506
ARG_OF_PERICENTER = 345.9180
MEAN_ANOMALY   = 14.1652

EPHEMERIS_TYPE = 0
CLASSIFICATION_TYPE = U
NORAD_CAT_ID   = 21397
ELEMENT_SET_NO = 999
REV_AT_EPOCH   = 86472
BSTAR          = .32534451E-3
MEAN_MOTION_DOT = .4625E-4
MEAN_MOTION_DDOT = 0

CCSDS_OMM_VERS = 2.0
CREATION_DATE  = 
ORIGINATOR     = 

OBJECT_NAME    = COSMOS 2151
OBJECT_ID      = 1991-042A
CENTER_NAME    = EARTH
REF_FRAME      = TEME
TIME_SYSTEM    = UTC
MEAN_ELEMENT_THEORY = SGP/SGP4

EPOCH          = 2026-03-07T13:10:18.086016
MEAN_MOTION    = 15.00095886
ECCENTRICITY   = .00140075
INCLINATION    = 82.4930
RA_OF_ASC_NODE = 85.7419
ARG_OF_PERICENTER = 70.2206
MEAN_ANOMALY   = 290.0527

EPHEMERIS_TYPE = 0
CLASSIFICATION_TYPE = U
NORAD_CAT_ID   = 21422
ELEMENT_SET_NO = 999
REV_AT_EPOCH   = 86287
BSTAR          = .18036924E-3
MEAN_MOTION_DOT = .2279E-4
MEAN_MOTION_DDOT = 0

CCSDS_OMM_VERS = 2.0
CREATION_DATE  = 
ORIGINATOR     = 

OBJECT_NAME    = SL-14 R/B
OBJECT_ID      = 1991-042B
CENTER_NAME    = EARTH
REF_FRAME      = TEME
TIME_SYSTEM    = UTC
MEAN_ELEMENT_THEORY = SGP/SGP4

EPOCH          = 2026-03-07T12:42:19.149984
MEAN_MOTION    = 14.81827302
ECCENTRICITY   = .00157013
INCLINATION    = 82.4918
RA_OF_ASC_NODE = 222.2080
ARG_OF_PERICENTER = 246.3379
MEAN_ANOMALY   = 113.6188

EPHEMERIS_TYPE = 0
CLASSIFICATION_TYPE = U
NORAD_CAT_ID   = 21423
ELEMENT_SET_NO = 999
REV_AT_EPOCH   = 85275
BSTAR          = .90354455E-4
MEAN_MOTION_DOT = .738E-5
MEAN_MOTION_DDOT = 0

