COSMOS 2058             
1 20465U 90010A   26066.46322850  .00006208  00000+0  36677-3 0  9994
2 20465  82.4671  49.6214 0009564 351.1659   8.9401 15.11298259941905
SL-14 R/B               
1 20466U 90010B   26066.59605301  .00000556  00000+0  64554-4 0  9990
2 20466  82.4988 269.3560 0018666 309.7077  50.2491 14.83566901928171
SL-14 R/B               
1 20511U 90018B   26066.61188487  .00000751  00000+0  91205-4 0  9993
2 20511  82.5199 225.0318 0017646  98.3320 261.9896 14.82142477922278
HST                     
1 20580U 90037B   26066.07173350  .00008800  00000+0  29166-3 0  9992
2 20580  28.4710  57.8566 0001811 100.2256 259.8544 15.29432289772911
SL-16 R/B               
1 20625U 90046B   26066.64712747 -.00000244  00000+0 -10135-3 0  9996
2 20625  70.9991 302.2047 0016212 302.3506  57.6046 14.15013177848100
COSMOS 2084             
1 20663U 90055A   26066.19819983  .00003799  00000+0  27495-3 0  9991
2 20663  62.7924 344.0754 0017441 189.3301 170.7478 15.05633843935940
SL-6 R/B(2)             
1 20666U 90055D   26066.64297367  .00002829  00000+0  21929-3 0  9999
2 20666  62.7823 260.8111 0024358 346.5140  13.5305 15.03583164937882
SL-8 R/B                
1 20775U 90078B   26066.55969413  .00019315  00000+0  56860-3 0  9993
2 20775  82.9000 253.2268 0362755  21.1646 340.4147 14.88972174808985
SL-8 R/B                
1 21088U 91006B   26066.37298850  .00000089  00000+0  73934-4 0  9993
2 21088  82.9466 171.7681 0023221  44.6389  18.4175 13.77493933763754
OKEAN-3                 
1 21397U 91039A   26066.61764316  .00004625  00000+0  32534-3 0  9994
2 21397  82.5189 338.8506 0014069 345.9180  14.1652 15.04785321864722
COSMOS 2151             
1 21422U 91042A   26066.54882044  .00002279  00000+0  18037-3 0  9993
2 21422  82.4930  85.7419 0014007  70.2206 290.0527 15.00095886862870
SL-14 R/B               
1 21423U 91042B   26066.52938831  .00000738  00000+0  90354-4 0  9999
2 21423  82.4918 222.2080 0015701 246.3379 113.6188 14.81827302852751
